[{"OBJECT_NAME":"NUSHSAT1","OBJECT_ID":"2025-052B","EPOCH":"2026-03-09T15:31:41.225952","MEAN_MOTION":15.31903202,"ECCENTRICITY":0.0005501,"INCLINATION":97.4095,"RA_OF_ASC_NODE":325.7239,"ARG_OF_PERICENTER":84.7512,"MEAN_ANOMALY":275.4357,"EPHEMERIS_TYPE":0,"CLASSIFICATION_TYPE":"U","NORAD_CAT_ID":63211,"ELEMENT_SET_NO":999,"REV_AT_EPOCH":5488,"BSTAR":0.00074857,"MEAN_MOTION_DOT":0.00023034,"MEAN_MOTION_DDOT":0},{"OBJECT_NAME":"STARLINK-35508","OBJECT_ID":"2025-225C","EPOCH":"2026-03-09T13:06:28.758816","MEAN_MOTION":15.30186433,"ECCENTRICITY":0.00010907,"INCLINATION":53.1584,"RA_OF_ASC_NODE":166.5253,"ARG_OF_PERICENTER":112.1029,"MEAN_ANOMALY":248.0088,"EPHEMERIS_TYPE":0,"CLASSIFICATION_TYPE":"U","NORAD_CAT_ID":65912,"ELEMENT_SET_NO":999,"REV_AT_EPOCH":2438,"BSTAR":0.00082748794,"MEAN_MOTION_DOT":0.00024218,"MEAN_MOTION_DDOT":0}]
